NORAD_CAT_ID,OBJECT_NAME,OBJECT_TYPE,EPOCH,MEAN_MOTION,ECCENTRICITY,INCLINATION,RA_OF_ASC_NODE,ARG_OF_PERICENTER,MEAN_ANOMALY,BSTAR,MEAN_MOTION_DOT,MEAN_MOTION_DDOT,TLE_LINE0,TLE_LINE1,TLE_LINE2,SEMIMAJOR_AXIS,PERIOD,APOGEE,PERIGEE,DECAYED
53287.0,STARLINK-4107,PAYLOAD,2023-03-21 02:28:16,15.08856846,8.58e-05,53.2191,13.0217,106.9012,253.2074,0.000796,0.00012409,0.0,0 STARLINK-4107,1 53287U 22086AX  23080.10296850  .00012409  00000-0  79600-3 0  9998,2 53287  53.2191  13.0217 0000858 106.9012 253.2074 15.08856846 37297,6917.829,95.436,540.287,539.1,0.0
53287.0,STARLINK-4107,PAYLOAD,2023-03-22 03:54:27,15.08839672,0.0001106,53.2196,8.2618,93.9006,266.2113,0.00013162,1.808e-05,0.0,0 STARLINK-4107,1 53287U 22086AX  23081.16281596  .00001808  00000-0  13162-3 0  9998,2 53287  53.2196   8.2618 0001106  93.9006 266.2113 15.08839672 37452,6917.881,95.438,540.512,538.981,0.0
53287.0,STARLINK-4107,PAYLOAD,2023-03-23 03:45:14,15.08850958,0.0001271,53.2182,3.8002,67.1084,293.0042,0.00070149,0.00010897,0.0,0 STARLINK-4107,1 53287U 22086AX  23082.15641689  .00010897  00000-0  70149-3 0  9997,2 53287  53.2182   3.8002 0001271  67.1084 293.0042 15.08850958 37760,6917.847,95.437,540.591,538.833,0.0
53287.0,STARLINK-4107,PAYLOAD,2023-03-23 21:14:29,15.08841735,0.0002003,53.2181,0.5305,54.7486,305.3694,0.00044961,6.875e-05,0.0,0 STARLINK-4107,1 53287U 22086AX  23082.88506415  .00006875  00000-0  44961-3 0  9998,2 53287  53.2181   0.5305 0002003  54.7486 305.3694 15.08841735 37876,6917.875,95.437,541.126,538.354,0.0
53287.0,STARLINK-4107,PAYLOAD,2023-03-24 03:36:01,15.08928551,0.0001268,53.2173,359.3403,89.1608,270.9529,0.0047647,0.00076552,0.0,0 STARLINK-4107,1 53287U 22086AX  23083.15001307  .00076552  00000-0  47647-2 0  9991,2 53287  53.2173 359.3403 0001268  89.1608 270.9529 15.08928551 37754,6917.61,95.432,540.352,538.598,0.0
53287.0,STARLINK-4107,PAYLOAD,2023-03-24 22:40:37,15.08874053,0.0002437,53.2171,355.7684,136.1507,223.9679,0.00097295,0.00015245,0.0,0 STARLINK-4107,1 53287U 22086AX  23083.94488062  .00015245  00000-0  97295-3 0  9992,2 53287  53.2171 355.7684 0002437 136.1507 223.9679 15.08874053 38036,6917.776,95.435,541.327,537.955,0.0
53287.0,STARLINK-4107,PAYLOAD,2023-03-25 03:26:48,15.08778861,0.0001768,53.2165,354.8813,76.5907,283.5282,-0.0021048,-0.00033575,0.0,0 STARLINK-4107,1 53287U 22086AX  23084.14361229 -.00033575  00000-0 -21048-2 0  9990,2 53287  53.2165 354.8813 0001768  76.5907 283.5282 15.08778861 37907,6918.067,95.441,541.155,538.709,0.0
53287.0,STARLINK-4107,PAYLOAD,2023-03-25 22:31:28,15.08801248,0.0001874,53.2174,351.3094,96.4052,263.7153,0.00075465,0.0001173,0.0,0 STARLINK-4107,1 53287U 22086AX  23084.93852165  .00011730  00000-0  75465-3 0  9991,2 53287  53.2174 351.3094 0001874  96.4052 263.7153 15.08801248 38184,6917.999,95.44,541.16,538.567,0.0
53287.0,STARLINK-4107,PAYLOAD,2023-03-26 03:17:38,15.08824411,0.0001986,53.2167,350.4201,81.9372,278.1845,0.001905,0.00030148,0.0,0 STARLINK-4107,1 53287U 22086AX  23085.13724712  .00030148  00000-0  19050-2 0  9991,2 53287  53.2167 350.4201 0001986  81.9372 278.1845 15.08824411 38055,6917.928,95.439,541.167,538.419,0.0
53287.0,STARLINK-4107,PAYLOAD,2023-03-26 22:22:15,15.08864135,0.0002103,53.2168,346.8525,81.9916,278.1314,0.0010826,0.00016995,0.0,0 STARLINK-4107,1 53287U 22086AX  23085.93211924  .00016995  00000-0  10826-2 0  9991,2 53287  53.2168 346.8525 0002103  81.9916 278.1314 15.08864135 38339,6917.807,95.436,541.126,538.217,0.0
53287.0,STARLINK-4107,PAYLOAD,2023-03-27 03:08:23,15.08886608,0.0002072,53.2172,345.9586,86.8146,273.3083,0.001799,0.00028496,0.0,0 STARLINK-4107,1 53287U 22086AX  23086.13083238  .00028496  00000-0  17990-2 0  9997,2 53287  53.2172 345.9586 0002072  86.8146 273.3083 15.08886608 38367,6917.738,95.435,541.036,538.17,0.0
53287.0,STARLINK-4107,PAYLOAD,2023-03-27 20:37:37,15.08869175,0.0001758,53.2179,342.6875,97.4917,262.6275,0.00094373,0.00014775,0.0,0 STARLINK-4107,1 53287U 22086AX  23086.85946341  .00014775  00000-0  94373-3 0  9995,2 53287  53.2179 342.6875 0001758  97.4917 262.6275 15.08869175 38312,6917.791,95.436,540.872,538.44,0.0
53287.0,STARLINK-4107,PAYLOAD,2023-03-27 22:13:00,15.08872011,0.0001714,53.2181,342.3906,91.8815,268.2373,0.0013465,0.00021225,0.0,0 STARLINK-4107,1 53287U 22086AX  23086.92570296  .00021225  00000-0  13465-2 0  9995,2 53287  53.2181 342.3906 0001714  91.8815 268.2373 15.08872011 38486,6917.783,95.436,540.833,538.462,0.0
53287.0,STARLINK-4107,PAYLOAD,2023-03-28 02:59:09,15.08881811,0.0001632,53.2182,341.4985,82.2064,277.9113,0.0014966,0.00023638,0.0,0 STARLINK-4107,1 53287U 22086AX  23087.12441798  .00023638  00000-0  14966-2 0  9999,2 53287  53.2182 341.4985 0001632  82.2064 277.9113 15.08881811 38514,6917.753,95.435,540.747,538.489,0.0
53287.0,STARLINK-4107,PAYLOAD,2023-03-28 15:42:15,15.08846299,0.0002953,53.218,339.1172,85.6121,274.5208,0.0012559,0.0001976,0.0,0 STARLINK-4107,1 53287U 22086AX  23087.65434373  .00019760  00000-0  12559-2 0  9995,2 53287  53.2180 339.1172 0002953  85.6121 274.5208 15.08846299 38432,6917.861,95.437,541.769,537.683,0.0
53287.0,STARLINK-4107,PAYLOAD,2023-03-28 20:28:24,15.08849759,0.000157,53.2171,338.2285,88.4753,271.6419,0.00089736,0.00014026,0.0,0 STARLINK-4107,1 53287U 22086AX  23087.85305977  .00014026  00000-0  89736-3 0  9996,2 53287  53.2171 338.2285 0001570  88.4753 271.6419 15.08849759 38620,6917.851,95.437,540.802,538.629,0.0
53287.0,STARLINK-4107,PAYLOAD,2023-03-29 02:49:56,15.08866702,0.0001611,53.2172,337.0385,99.1223,260.9952,0.0016433,0.00025981,0.0,0 STARLINK-4107,1 53287U 22086AX  23088.11801640  .00025981  00000-0  16433-2 0  9999,2 53287  53.2172 337.0385 0001611  99.1223 260.9952 15.08866702 38660,6917.799,95.436,540.778,538.549,0.0
53287.0,STARLINK-4107,PAYLOAD,2023-03-29 20:19:11,15.08847732,0.000149,53.2169,333.7681,93.2971,266.8191,0.0014797,0.00023345,0.0,0 STARLINK-4107,1 53287U 22086AX  23088.84666253  .00023345  00000-0  14797-2 0  9991,2 53287  53.2169 333.7681 0001490  93.2971 266.8191 15.08847732 38615,6917.857,95.437,540.753,538.691,0.0
53287.0,STARLINK-4107,PAYLOAD,2023-03-30 01:05:21,15.08849776,0.0001444,53.217,332.8762,83.0814,277.0342,0.0014598,0.00023027,0.0,0 STARLINK-4107,1 53287U 22086AX  23089.04538223  .00023027  00000-0  14598-2 0  9995,2 53287  53.2170 332.8762 0001444  83.0814 277.0342 15.08849776 38802,6917.851,95.437,540.714,538.717,0.0
53287.0,STARLINK-4107,PAYLOAD,2023-03-31 02:31:31,15.08859446,0.0001458,53.2169,328.1168,81.2673,278.8484,0.0011616,0.00018257,0.0,0 STARLINK-4107,1 53287U 22086AX  23090.10522217  .00018257  00000-0  11616-2 0  9997,2 53287  53.2169 328.1168 0001458  81.2673 278.8484 15.08859446 38807,6917.821,95.436,540.695,538.677,0.0
53287.0,STARLINK-4107,PAYLOAD,2023-03-31 15:14:36,15.08841981,0.0001891,53.2156,325.7385,80.306,279.8146,0.00068757,0.00010672,0.0,0 STARLINK-4107,1 53287U 22086AX  23090.63514650  .00010672  00000-0  68757-3 0  9999,2 53287  53.2156 325.7385 0001891  80.3060 279.8146 15.08841981 38887,6917.874,95.437,541.048,538.431,0.0
53287.0,STARLINK-4107,PAYLOAD,2023-04-01 15:05:24,15.08826141,0.0001242,53.2167,321.2772,98.2445,261.8688,0.00039743,6.04e-05,0.0,0 STARLINK-4107,1 53287U 22086AX  23091.62875365  .00006040  00000-0  39743-3 0  9999,2 53287  53.2167 321.2772 0001242  98.2445 261.8688 15.08826141 39036,6917.923,95.438,540.647,538.929,0.0
53287.0,STARLINK-4107,PAYLOAD,2023-04-01 21:26:57,15.08831261,0.0001412,53.2167,320.0878,92.0763,268.0391,0.00070333,0.00010921,0.0,0 STARLINK-4107,1 53287U 22086AX  23091.89371719  .00010921  00000-0  70333-3 0  9995,2 53287  53.2167 320.0878 0001412  92.0763 268.0391 15.08831261 39235,6917.907,95.438,540.749,538.795,0.0
53287.0,STARLINK-4107,PAYLOAD,2023-04-02 14:56:11,15.08850081,0.0001313,53.2175,316.8194,77.8071,282.3068,0.0010041,0.00015733,0.0,0 STARLINK-4107,1 53287U 22086AX  23092.62235826  .00015733  00000-0  10041-2 0  9990,2 53287  53.2175 316.8194 0001313  77.8071 282.3068 15.08850081 39344,6917.85,95.437,540.623,538.806,0.0
53287.0,STARLINK-4107,PAYLOAD,2023-04-02 21:17:43,15.0885961,0.00013,53.2175,315.6303,74.7274,285.3861,0.0009936,0.00015569,0.0,0 STARLINK-4107,1 53287U 22086AX  23092.88731458  .00015569  00000-0  99360-3 0  9999,2 53287  53.2175 315.6303 0001300  74.7274 285.3861 15.08859610 39228,6917.82,95.436,540.585,538.786,0.0
53287.0,STARLINK-4107,PAYLOAD,2023-04-03 00:28:29,15.08891151,0.0001694,53.2168,315.0354,110.4902,249.6272,0.0022811,0.00036254,0.0,0 STARLINK-4107,1 53287U 22086AX  23093.01978928  .00036254  00000-0  22811-2 0  9990,2 53287  53.2168 315.0354 0001694 110.4902 249.6272 15.08891151 39249,6917.724,95.434,540.761,538.417,0.0
53287.0,STARLINK-4107,PAYLOAD,2023-04-03 21:08:30,15.08849306,0.0001197,53.2171,311.1718,78.2925,281.8202,0.00017614,2.517e-05,0.0,0 STARLINK-4107,1 53287U 22086AX  23093.88090900  .00002517  00000-0  17614-3 0  9991,2 53287  53.2171 311.1718 0001197  78.2925 281.8202 15.08849306 39378,6917.852,95.437,540.545,538.889,0.0
53287.0,STARLINK-4107,PAYLOAD,2023-04-04 00:19:16,15.08868119,0.0001108,53.2163,310.5749,81.7656,278.3461,0.00099157,0.0001554,0.0,0 STARLINK-4107,1 53287U 22086AX  23094.01338732  .00015540  00000-0  99157-3 0  9997,2 53287  53.2163 310.5749 0001108  81.7656 278.3461 15.08868119 39391,6917.794,95.436,540.426,538.893,0.0
53287.0,STARLINK-4107,PAYLOAD,2023-04-04 20:59:17,15.08845155,0.0001232,53.2171,306.7101,63.2404,296.8714,0.0012227,0.00019228,0.0,0 STARLINK-4107,1 53287U 22086AX  23094.87451253  .00019228  00000-0  12227-2 0  9994,2 53287  53.2171 306.7101 0001232  63.2404 296.8714 15.08845155 39686,6917.865,95.437,540.582,538.877,0.0
53287.0,STARLINK-4107,PAYLOAD,2023-04-05 00:10:03,15.08854429,0.0001202,53.2165,306.1147,66.7959,293.316,0.00072728,0.0001131,0.0,0 STARLINK-4107,1 53287U 22086AX  23095.00698940  .00011310  00000-0  72728-3 0  9993,2 53287  53.2165 306.1147 0001202  66.7959 293.3160 15.08854429 39549,6917.836,95.437,540.533,538.87,0.0
